{
  "norad_id": 51756,
  "name": "STARLINK-3513",
  "history": [
    {
      "epoch": "2026-03-28T16:11:58.887168Z",
      "apogee_km": 540.7808552465422,
      "perigee_km": 538.7205699279793,
      "latitude_deg": -1.8170877484876736e-05,
      "longitude_deg": 154.8078897878664,
      "height_km": 540.7320466987176,
      "semi_major_axis_km": 6917.8877125872605,
      "eccentricity": 0.00014891,
      "inclination_deg": 53.2193,
      "raan_deg": 223.8953,
      "arg_perigee_deg": 94.7664,
      "mean_anomaly_deg": 265.3498,
      "mean_motion_rev_day": 15.08837604
    }
  ]
}