{"fetched_at":"2026-03-29T16:36:15Z","count":15609,"tles":[{"name":"STARLINK-3513","line1":"1 51756U 22016AU  26087.67498712  .00000558  00000+0  53130-4 0  9995","line2":"2 51756  53.2193 223.8953 0001489  94.7664 265.3498 15.08837604226570","category":"Starlink"}]}